{"type": "FeatureCollection", "features": [ {"type": "Feature", "properties": {"norad_id": 37834, "name": "INTELSAT 18 (IS-18)", "group": "intelsat", "lat": 0.0018002422759896253, "lon": -24.70473529324287, "alt_km": 35783.03024403707, "timestamp": "2025-12-11T05:00:25.978817+00:00", "meta": {"OBJECT_NAME": "INTELSAT 18 (IS-18)", "OBJECT_ID": "2011-056A", "EPOCH": "2025-12-10T14:23:51.194976", "MEAN_MOTION": 1.00271736, "ECCENTRICITY": 0.00019912, "INCLINATION": 0.0186, "RA_OF_ASC_NODE": 329.247, "ARG_OF_PERICENTER": 297.0867, "MEAN_ANOMALY": 209.1989, "EPHEMERIS_TYPE": 0, "CLASSIFICATION_TYPE": "U", "NORAD_CAT_ID": 37834, "ELEMENT_SET_NO": 999, "REV_AT_EPOCH": 5192, "BSTAR": 0, "MEAN_MOTION_DOT": 5.7e-07, "MEAN_MOTION_DDOT": 0}, "tle": {"line1": "1 37834U 11056A   25344.59989809  .00000057  00000+0  00000+0 0  9993", "line2": "2 37834   0.0186 329.2470 0001991 297.0867 209.1989  1.00271736 51920"}}, "geometry": {"type": "Point", "coordinates": [-24.70473529324287, 0.0018002422759896253]}}, {"type": "Feature", "properties": {"norad_id": 38098, "name": "INTELSAT 22 (IS-22)", "group": "intelsat", "lat": -0.017325137125579176, "lon": -132.61337205603323, "alt_km": 35780.708403918026, "timestamp": "2025-12-11T05:00:25.978829+00:00", "meta": {"OBJECT_NAME": "INTELSAT 22 (IS-22)", "OBJECT_ID": "2012-011A", "EPOCH": "2025-12-10T21:10:10.225920", "MEAN_MOTION": 1.00271186, "ECCENTRICITY": 0.00017194, "INCLINATION": 0.0021, "RA_OF_ASC_NODE": 355.6086, "ARG_OF_PERICENTER": 272.2396, "MEAN_ANOMALY": 201.6682, "EPHEMERIS_TYPE": 0, "CLASSIFICATION_TYPE": "U", "NORAD_CAT_ID": 38098, "ELEMENT_SET_NO": 999, "REV_AT_EPOCH": 530, "BSTAR": 0, "MEAN_MOTION_DOT": -5.4e-07, "MEAN_MOTION_DDOT": 0}, "tle": {"line1": "1 38098U 12011A   25344.88206280 -.00000054  00000+0  00000+0 0  9993", "line2": "2 38098   0.0021 355.6086 0001719 272.2396 201.6682  1.00271186  5304"}}, "geometry": {"type": "Point", "coordinates": [-132.61337205603323, -0.017325137125579176]}}, {"type": "Feature", "properties": {"norad_id": 38356, "name": "INTELSAT 19 (IS-19)", "group": "intelsat", "lat": -0.007533356541274955, "lon": -38.68331488529232, "alt_km": 35777.195762877745, "timestamp": "2025-12-11T05:00:25.978841+00:00", "meta": {"OBJECT_NAME": "INTELSAT 19 (IS-19)", "OBJECT_ID": "2012-030A", "EPOCH": "2025-12-10T19:28:04.522944", "MEAN_MOTION": 1.00272034, "ECCENTRICITY": 0.0003484, "INCLINATION": 0.0092, "RA_OF_ASC_NODE": 336.1413, "ARG_OF_PERICENTER": 291.9303, "MEAN_ANOMALY": 269.7352, "EPHEMERIS_TYPE": 0, "CLASSIFICATION_TYPE": "U", "NORAD_CAT_ID": 38356, "ELEMENT_SET_NO": 999, "REV_AT_EPOCH": 4856, "BSTAR": 0, "MEAN_MOTION_DOT": -5.1e-07, "MEAN_MOTION_DDOT": 0}, "tle": {"line1": "1 38356U 12030A   25344.81116346 -.00000051  00000+0  00000+0 0  9994", "line2": "2 38356   0.0092 336.1413 0003484 291.9303 269.7352  1.00272034 48561"}}, "geometry": {"type": "Point", "coordinates": [-38.68331488529232, -0.007533356541274955]}}, {"type": "Feature", "properties": {"norad_id": 38740, "name": "INTELSAT 20 (IS-20)", "group": "intelsat", "lat": -0.005133555021589197, "lon": -136.1897833782453, "alt_km": 35775.15858731245, "timestamp": "2025-12-11T05:00:25.978853+00:00", "meta": {"OBJECT_NAME": "INTELSAT 20 (IS-20)", "OBJECT_ID": "2012-043A", "EPOCH": "2025-12-10T20:36:25.339968", "MEAN_MOTION": 1.0027642, "ECCENTRICITY": 0.00027491, "INCLINATION": 0.0128, "RA_OF_ASC_NODE": 86.5275, "ARG_OF_PERICENTER": 103.4146, "MEAN_ANOMALY": 267.5009, "EPHEMERIS_TYPE": 0, "CLASSIFICATION_TYPE": "U", "NORAD_CAT_ID": 38740, "ELEMENT_SET_NO": 999, "REV_AT_EPOCH": 4886, "BSTAR": 0, "MEAN_MOTION_DOT": -2.1e-07, "MEAN_MOTION_DDOT": 0}, "tle": {"line1": "1 38740U 12043A   25344.85862662 -.00000021  00000+0  00000+0 0  9995", "line2": "2 38740   0.0128  86.5275 0002749 103.4146 267.5009  1.00276420 48866"}}, "geometry": {"type": "Point", "coordinates": [-136.1897833782453, -0.005133555021589197]}}, {"type": "Feature", "properties": {"norad_id": 38749, "name": "INTELSAT 21 (IS-21)", "group": "intelsat", "lat": 0.023092658887471768, "lon": 97.2630933251644, "alt_km": 35794.9649270813, "timestamp": "2025-12-11T05:00:25.978864+00:00", "meta": {"OBJECT_NAME": "INTELSAT 21 (IS-21)", "OBJECT_ID": "2012-045A", "EPOCH": "2025-12-10T20:06:53.306208", "MEAN_MOTION": 1.00270049, "ECCENTRICITY": 0.00020905, "INCLINATION": 0.0183, "RA_OF_ASC_NODE": 54.0529, "ARG_OF_PERICENTER": 203.9968, "MEAN_ANOMALY": 65.4761, "EPHEMERIS_TYPE": 0, "CLASSIFICATION_TYPE": "U", "NORAD_CAT_ID": 38749, "ELEMENT_SET_NO": 999, "REV_AT_EPOCH": 4863, "BSTAR": 0, "MEAN_MOTION_DOT": -2.8e-06, "MEAN_MOTION_DDOT": 0}, "tle": {"line1": "1 38749U 12045A   25344.83811697 -.00000280  00000+0  00000+0 0  9993", "line2": "2 38749   0.0183  54.0529 0002090 203.9968  65.4761  1.00270049 48631"}}, "geometry": {"type": "Point", "coordinates": [97.2630933251644, 0.023092658887471768]}}, {"type": "Feature", "properties": {"norad_id": 38867, "name": "INTELSAT 23 (IS-23)", "group": "intelsat", "lat": 0.02290643503003881, "lon": 102.15741833220717, "alt_km": 35790.19857097209, "timestamp": "2025-12-11T05:00:25.978876+00:00", "meta": {"OBJECT_NAME": "INTELSAT 23 (IS-23)", "OBJECT_ID": "2012-057A", "EPOCH": "2025-12-09T20:10:10.491744", "MEAN_MOTION": 1.00260311, "ECCENTRICITY": 0.00020064, "INCLINATION": 0.0432, "RA_OF_ASC_NODE": 94.7791, "ARG_OF_PERICENTER": 102.2636, "MEAN_ANOMALY": 131.2856, "EPHEMERIS_TYPE": 0, "CLASSIFICATION_TYPE": "U", "NORAD_CAT_ID": 38867, "ELEMENT_SET_NO": 999, "REV_AT_EPOCH": 4805, "BSTAR": 0, "MEAN_MOTION_DOT": -2.82e-06, "MEAN_MOTION_DDOT": 0}, "tle": {"line1": "1 38867U 12057A   25343.84039921 -.00000282  00000+0  00000+0 0  9991", "line2": "2 38867   0.0432  94.7791 0002006 102.2636 131.2856  1.00260311 48055"}}, "geometry": {"type": "Point", "coordinates": [102.15741833220717, 0.02290643503003881]}}, {"type": "Feature", "properties": {"norad_id": 39360, "name": "FM-6", "group": "intelsat", "lat": 0.005804250385064119, "lon": 39.09270139556798, "alt_km": 35795.16906503668, "timestamp": "2025-12-11T05:00:25.978887+00:00", "meta": {"OBJECT_NAME": "FM-6", "OBJECT_ID": "2013-058A", "EPOCH": "2025-12-10T16:24:48.771648", "MEAN_MOTION": 1.00269319, "ECCENTRICITY": 0.00028652, "INCLINATION": 0.0074, "RA_OF_ASC_NODE": 61.5129, "ARG_OF_PERICENTER": 111.9114, "MEAN_ANOMALY": 36.2778, "EPHEMERIS_TYPE": 0, "CLASSIFICATION_TYPE": "U", "NORAD_CAT_ID": 39360, "ELEMENT_SET_NO": 999, "REV_AT_EPOCH": 4418, "BSTAR": 0, "MEAN_MOTION_DOT": -1.2e-07, "MEAN_MOTION_DDOT": 0}, "tle": {"line1": "1 39360U 13058A   25344.68389782 -.00000012  00000+0  00000+0 0  9999", "line2": "2 39360   0.0074  61.5129 0002865 111.9114  36.2778  1.00269319 44188"}}, "geometry": {"type": "Point", "coordinates": [39.09270139556798, 0.005804250385064119]}}, {"type": "Feature", "properties": {"norad_id": 40271, "name": "INTELSAT 30 (IS-30)", "group": "intelsat", "lat": 0.022921057643259562, "lon": 60.201326263087324, "alt_km": 35781.52588314054, "timestamp": "2025-12-11T05:00:25.978899+00:00", "meta": {"OBJECT_NAME": "INTELSAT 30 (IS-30)", "OBJECT_ID": "2014-062A", "EPOCH": "2025-12-10T19:56:16.821600", "MEAN_MOTION": 1.00269622, "ECCENTRICITY": 0.00013007, "INCLINATION": 0.0174, "RA_OF_ASC_NODE": 29.1064, "ARG_OF_PERICENTER": 50.969, "MEAN_ANOMALY": 203.7271, "EPHEMERIS_TYPE": 0, "CLASSIFICATION_TYPE": "U", "NORAD_CAT_ID": 40271, "ELEMENT_SET_NO": 999, "REV_AT_EPOCH": 489, "BSTAR": 0, "MEAN_MOTION_DOT": -1.46e-06, "MEAN_MOTION_DDOT": 0}, "tle": {"line1": "1 40271U 14062A   25344.83075025 -.00000146  00000+0  00000+0 0  9995", "line2": "2 40271   0.0174  29.1064 0001300  50.9690 203.7271  1.00269622  4894"}}, "geometry": {"type": "Point", "coordinates": [60.201326263087324, 0.022921057643259562]}}, {"type": "Feature", "properties": {"norad_id": 40333, "name": "DIRECTV 14", "group": "intelsat", "lat": 0.03498683326004599, "lon": 56.06364132835218, "alt_km": 35787.1511450249, "timestamp": "2025-12-11T05:00:25.978910+00:00", "meta": {"OBJECT_NAME": "DIRECTV 14", "OBJECT_ID": "2014-078B", "EPOCH": "2025-12-10T19:55:09.428736", "MEAN_MOTION": 1.00272899, "ECCENTRICITY": 4.332e-05, "INCLINATION": 0.0175, "RA_OF_ASC_NODE": 323.2258, "ARG_OF_PERICENTER": 231.6698, "MEAN_ANOMALY": 84.4814, "EPHEMERIS_TYPE": 0, "CLASSIFICATION_TYPE": "U", "NORAD_CAT_ID": 40333, "ELEMENT_SET_NO": 999, "REV_AT_EPOCH": 4015, "BSTAR": 0, "MEAN_MOTION_DOT": -1.21e-06, "MEAN_MOTION_DDOT": 0}, "tle": {"line1": "1 40333U 14078B   25344.82997024 -.00000121  00000+0  00000+0 0  9995", "line2": "2 40333   0.0175 323.2258 0000433 231.6698  84.4814  1.00272899 40155"}}, "geometry": {"type": "Point", "coordinates": [56.06364132835218, 0.03498683326004599]}}, {"type": "Feature", "properties": {"norad_id": 40663, "name": "DIRECTV 15", "group": "intelsat", "lat": -0.0016767117244170194, "lon": 52.40895604571478, "alt_km": 35787.67343958198, "timestamp": "2025-12-11T05:00:25.978921+00:00", "meta": {"OBJECT_NAME": "DIRECTV 15", "OBJECT_ID": "2015-026A", "EPOCH": "2025-12-10T19:53:54.549312", "MEAN_MOTION": 1.00270849, "ECCENTRICITY": 3.133e-05, "INCLINATION": 0.041, "RA_OF_ASC_NODE": 84.6523, "ARG_OF_PERICENTER": 149.0954, "MEAN_ANOMALY": 41.6611, "EPHEMERIS_TYPE": 0, "CLASSIFICATION_TYPE": "U", "NORAD_CAT_ID": 40663, "ELEMENT_SET_NO": 999, "REV_AT_EPOCH": 3857, "BSTAR": 0, "MEAN_MOTION_DOT": -9.8e-07, "MEAN_MOTION_DDOT": 0}, "tle": {"line1": "1 40663U 15026A   25344.82910358 -.00000098  00000+0  00000+0 0  9993", "line2": "2 40663   0.0410  84.6523 0000313 149.0954  41.6611  1.00270849 38576"}}, "geometry": {"type": "Point", "coordinates": [52.40895604571478, -0.0016767117244170194]}}]}